{
  "type": "FeatureCollection",
  "features": [
    {
      "type": "Feature",
      "properties": {
        "OBJECT_NAME": "FENGYUN 1C DEB",
        "OBJECT_ID": "1999-025CTY",
        "EPOCH": "2025-11-26T06:46:13.443456",
        "MEAN_MOTION": 14.22843314,
        "ECCENTRICITY": 0.00951304,
        "INCLINATION": 100.3039,
        "RA_OF_ASC_NODE": 328.9436,
        "ARG_OF_PERICENTER": 8.654,
        "MEAN_ANOMALY": 351.6247,
        "EPHEMERIS_TYPE": 0,
        "CLASSIFICATION_TYPE": "U",
        "NORAD_CAT_ID": 32178,
        "ELEMENT_SET_NO": 999,
        "REV_AT_EPOCH": 63769,
        "BSTAR": 0.0014846781,
        "MEAN_MOTION_DOT": 3.436e-05,
        "MEAN_MOTION_DDOT": 0,
        "norad_id": 32178,
        "name": "FENGYUN 1C DEB",
        "group": "fengyun-1c-debris",
        "longitude_deg": NaN,
        "latitude_deg": NaN,
        "alt_km": NaN,
        "orbit_class": "HEO",
        "timestamp": "2025-11-30T04:57:05.900536+00:00"
      },
      "geometry": {
        "type": "Point",
        "coordinates": [
          NaN,
          NaN
        ]
      }
    },
    {
      "type": "Feature",
      "properties": {
        "OBJECT_NAME": "FENGYUN 1C DEB",
        "OBJECT_ID": "1999-025CTZ",
        "EPOCH": "2025-11-29T02:58:20.961408",
        "MEAN_MOTION": 14.03670959,
        "ECCENTRICITY": 0.01447109,
        "INCLINATION": 98.9121,
        "RA_OF_ASC_NODE": 22.2218,
        "ARG_OF_PERICENTER": 227.9339,
        "MEAN_ANOMALY": 160.7794,
        "EPHEMERIS_TYPE": 0,
        "CLASSIFICATION_TYPE": "U",
        "NORAD_CAT_ID": 32179,
        "ELEMENT_SET_NO": 999,
        "REV_AT_EPOCH": 65537,
        "BSTAR": 0.00014598224,
        "MEAN_MOTION_DOT": 2.07e-06,
        "MEAN_MOTION_DDOT": 0,
        "norad_id": 32179,
        "name": "FENGYUN 1C DEB",
        "group": "fengyun-1c-debris",
        "longitude_deg": NaN,
        "latitude_deg": NaN,
        "alt_km": NaN,
        "orbit_class": "HEO",
        "timestamp": "2025-11-30T04:57:05.900543+00:00"
      },
      "geometry": {
        "type": "Point",
        "coordinates": [
          NaN,
          NaN
        ]
      }
    },
    {
      "type": "Feature",
      "properties": {
        "OBJECT_NAME": "FENGYUN 1C DEB",
        "OBJECT_ID": "1999-025CUA",
        "EPOCH": "2025-11-27T08:15:01.155168",
        "MEAN_MOTION": 13.82321745,
        "ECCENTRICITY": 0.01358943,
        "INCLINATION": 99.5881,
        "RA_OF_ASC_NODE": 11.2039,
        "ARG_OF_PERICENTER": 251.1595,
        "MEAN_ANOMALY": 169.8287,
        "EPHEMERIS_TYPE": 0,
        "CLASSIFICATION_TYPE": "U",
        "NORAD_CAT_ID": 32180,
        "ELEMENT_SET_NO": 999,
        "REV_AT_EPOCH": 94055,
        "BSTAR": 0.00011128217,
        "MEAN_MOTION_DOT": 8.1e-07,
        "MEAN_MOTION_DDOT": 0,
        "norad_id": 32180,
        "name": "FENGYUN 1C DEB",
        "group": "fengyun-1c-debris",
        "longitude_deg": NaN,
        "latitude_deg": NaN,
        "alt_km": NaN,
        "orbit_class": "HEO",
        "timestamp": "2025-11-30T04:57:05.900551+00:00"
      },
      "geometry": {
        "type": "Point",
        "coordinates": [
          NaN,
          NaN
        ]
      }
    },
    {
      "type": "Feature",
      "properties": {
        "OBJECT_NAME": "FENGYUN 1C DEB",
        "OBJECT_ID": "1999-025CUB",
        "EPOCH": "2025-11-29T02:37:36.179328",
        "MEAN_MOTION": 14.55852792,
        "ECCENTRICITY": 0.00742436,
        "INCLINATION": 99.4726,
        "RA_OF_ASC_NODE": 75.0634,
        "ARG_OF_PERICENTER": 125.8219,
        "MEAN_ANOMALY": 356.868,
        "EPHEMERIS_TYPE": 0,
        "CLASSIFICATION_TYPE": "U",
        "NORAD_CAT_ID": 32181,
        "ELEMENT_SET_NO": 999,
        "REV_AT_EPOCH": 96522,
        "BSTAR": 0.0011788366,
        "MEAN_MOTION_DOT": 5.31e-05,
        "MEAN_MOTION_DDOT": 0,
        "norad_id": 32181,
        "name": "FENGYUN 1C DEB",
        "group": "fengyun-1c-debris",
        "longitude_deg": NaN,
        "latitude_deg": NaN,
        "alt_km": NaN,
        "orbit_class": "HEO",
        "timestamp": "2025-11-30T04:57:05.900556+00:00"
      },
      "geometry": {
        "type": "Point",
        "coordinates": [
          NaN,
          NaN
        ]
      }
    },
    {
      "type": "Feature",
      "properties": {
        "OBJECT_NAME": "FENGYUN 1C DEB",
        "OBJECT_ID": "1999-025CUD",
        "EPOCH": "2025-11-29T02:30:25.585056",
        "MEAN_MOTION": 14.10035757,
        "ECCENTRICITY": 0.00433984,
        "INCLINATION": 98.7148,
        "RA_OF_ASC_NODE": 24.735,
        "ARG_OF_PERICENTER": 99.0174,
        "MEAN_ANOMALY": 261.5912,
        "EPHEMERIS_TYPE": 0,
        "CLASSIFICATION_TYPE": "U",
        "NORAD_CAT_ID": 32183,
        "ELEMENT_SET_NO": 999,
        "REV_AT_EPOCH": 72572,
        "BSTAR": 0.00069136129,
        "MEAN_MOTION_DOT": 1.189e-05,
        "MEAN_MOTION_DDOT": 0,
        "norad_id": 32183,
        "name": "FENGYUN 1C DEB",
        "group": "fengyun-1c-debris",
        "longitude_deg": NaN,
        "latitude_deg": NaN,
        "alt_km": NaN,
        "orbit_class": "HEO",
        "timestamp": "2025-11-30T04:57:05.900562+00:00"
      },
      "geometry": {
        "type": "Point",
        "coordinates": [
          NaN,
          NaN
        ]
      }
    },
    {
      "type": "Feature",
      "properties": {
        "OBJECT_NAME": "FENGYUN 1C DEB",
        "OBJECT_ID": "1999-025CUE",
        "EPOCH": "2025-11-29T15:43:46.154784",
        "MEAN_MOTION": 15.41244079,
        "ECCENTRICITY": 0.0073724,
        "INCLINATION": 98.1191,
        "RA_OF_ASC_NODE": 111.5023,
        "ARG_OF_PERICENTER": 34.7178,
        "MEAN_ANOMALY": 325.8845,
        "EPHEMERIS_TYPE": 0,
        "CLASSIFICATION_TYPE": "U",
        "NORAD_CAT_ID": 32184,
        "ELEMENT_SET_NO": 999,
        "REV_AT_EPOCH": 98202,
        "BSTAR": 0.0015683,
        "MEAN_MOTION_DOT": 0.00072323,
        "MEAN_MOTION_DDOT": 0,
        "norad_id": 32184,
        "name": "FENGYUN 1C DEB",
        "group": "fengyun-1c-debris",
        "longitude_deg": NaN,
        "latitude_deg": NaN,
        "alt_km": NaN,
        "orbit_class": "HEO",
        "timestamp": "2025-11-30T04:57:05.900569+00:00"
      },
      "geometry": {
        "type": "Point",
        "coordinates": [
          NaN,
          NaN
        ]
      }
    },
    {
      "type": "Feature",
      "properties": {
        "OBJECT_NAME": "FENGYUN 1C DEB",
        "OBJECT_ID": "1999-025CUF",
        "EPOCH": "2025-11-28T12:48:17.226144",
        "MEAN_MOTION": 15.01606707,
        "ECCENTRICITY": 0.01666663,
        "INCLINATION": 98.9039,
        "RA_OF_ASC_NODE": 176.6882,
        "ARG_OF_PERICENTER": 61.2504,
        "MEAN_ANOMALY": 300.5346,
        "EPHEMERIS_TYPE": 0,
        "CLASSIFICATION_TYPE": "U",
        "NORAD_CAT_ID": 32185,
        "ELEMENT_SET_NO": 999,
        "REV_AT_EPOCH": 94802,
        "BSTAR": 0.0024313391,
        "MEAN_MOTION_DOT": 0.00042701,
        "MEAN_MOTION_DDOT": 0,
        "norad_id": 32185,
        "name": "FENGYUN 1C DEB",
        "group": "fengyun-1c-debris",
        "longitude_deg": NaN,
        "latitude_deg": NaN,
        "alt_km": NaN,
        "orbit_class": "HEO",
        "timestamp": "2025-11-30T04:57:05.900575+00:00"
      },
      "geometry": {
        "type": "Point",
        "coordinates": [
          NaN,
          NaN
        ]
      }
    },
    {
      "type": "Feature",
      "properties": {
        "OBJECT_NAME": "FENGYUN 1C DEB",
        "OBJECT_ID": "1999-025CUG",
        "EPOCH": "2025-11-27T22:32:39.210144",
        "MEAN_MOTION": 13.76456233,
        "ECCENTRICITY": 0.0273811,
        "INCLINATION": 99.6093,
        "RA_OF_ASC_NODE": 22.268,
        "ARG_OF_PERICENTER": 239.107,
        "MEAN_ANOMALY": 302.2685,
        "EPHEMERIS_TYPE": 0,
        "CLASSIFICATION_TYPE": "U",
        "NORAD_CAT_ID": 32186,
        "ELEMENT_SET_NO": 999,
        "REV_AT_EPOCH": 62406,
        "BSTAR": 0.0013119,
        "MEAN_MOTION_DOT": 1.643e-05,
        "MEAN_MOTION_DDOT": 0,
        "norad_id": 32186,
        "name": "FENGYUN 1C DEB",
        "group": "fengyun-1c-debris",
        "longitude_deg": NaN,
        "latitude_deg": NaN,
        "alt_km": NaN,
        "orbit_class": "HEO",
        "timestamp": "2025-11-30T04:57:05.900581+00:00"
      },
      "geometry": {
        "type": "Point",
        "coordinates": [
          NaN,
          NaN
        ]
      }
    },
    {
      "type": "Feature",
      "properties": {
        "OBJECT_NAME": "FENGYUN 1C DEB",
        "OBJECT_ID": "1999-025CUH",
        "EPOCH": "2025-11-14T01:13:51.155328",
        "MEAN_MOTION": 13.50459969,
        "ECCENTRICITY": 0.02935721,
        "INCLINATION": 99.509,
        "RA_OF_ASC_NODE": 38.2489,
        "ARG_OF_PERICENTER": 217.6555,
        "MEAN_ANOMALY": 268.1397,
        "EPHEMERIS_TYPE": 0,
        "CLASSIFICATION_TYPE": "U",
        "NORAD_CAT_ID": 32187,
        "ELEMENT_SET_NO": 999,
        "REV_AT_EPOCH": 65871,
        "BSTAR": 0.0010895496,
        "MEAN_MOTION_DOT": 8.7e-06,
        "MEAN_MOTION_DDOT": 0,
        "norad_id": 32187,
        "name": "FENGYUN 1C DEB",
        "group": "fengyun-1c-debris",
        "longitude_deg": NaN,
        "latitude_deg": NaN,
        "alt_km": NaN,
        "orbit_class": "HEO",
        "timestamp": "2025-11-30T04:57:05.900588+00:00"
      },
      "geometry": {
        "type": "Point",
        "coordinates": [
          NaN,
          NaN
        ]
      }
    }
  ]
}